TECHSAT 1B (GO-32)      
1 25397U 98043D   24189.89411937  .00000139  00000+0  80614-4 0  9991
2 25397  98.9225 156.9273 0002397  94.3961 265.7491 14.24065791350583
HUANJING 1A (HJ-1A)     
1 33320U 08041A   24190.18980151  .00001850  00000+0  25006-3 0  9992
2 33320  97.6303 196.1660 0018806 305.3880  54.5576 14.80066040853467
HUANJING 1B (HJ-1B)     
1 33321U 08041B   24190.18978590  .00001450  00000+0  19441-3 0  9999
2 33321  97.6259 200.6998 0037939 349.9053  10.1393 14.80341125853484
YAOGAN-4                
1 33446U 08061A   24189.91674361  .00002005  00000+0  27208-3 0  9994
2 33446  97.8797 121.4046 0014153 213.1791 146.8534 14.79915273840624
SCD 1                   
1 22490U 93009B   24189.60657395  .00000595  00000+0  11349-3 0  9992
2 22490  24.9691 266.6829 0042371 191.0125 313.9120 14.45321468658315
SCD 2                   
1 25504U 98060A   24189.93588046  .00000572  00000+0  11041-3 0  9999
2 25504  24.9944 124.2085 0016961 190.5379 227.7959 14.44803630357974
LANDSAT 7               
1 25682U 99020A   24190.18703456  .00000671  00000+0  14647-3 0  9991
2 25682  97.8865 215.9838 0001186  90.0658 358.9255 14.60735791342265
DLR-TUBSAT              
1 25757U 99029B   24189.90796129  .00000232  00000+0  69329-4 0  9991
2 25757  98.5871 154.2872 0014123 353.2154   6.8847 14.51926665330407
TERRA                   
1 25994U 99068A   24190.19989517  .00000672  00000+0  14993-3 0  9999
2 25994  98.0472 253.0701 0000884 337.5174  87.7523 14.59849531306234
MAROC-TUBSAT            
1 27004U 01056D   24189.93723633 -.00000027  00000+0  21790-4 0  9997
2 27004  99.7359 344.6509 0020146 158.5878 317.9243 13.70207984129050
AQUA                    
1 27424U 02022A   24189.93883762  .00001390  00000+0  30311-3 0  9998
2 27424  98.3311 139.3885 0002161  69.7436 336.1498 14.59450258179743
IRS-P6 (RESOURCESAT-1)  
1 28051U 03046A   24189.95083626  .00000205  00000+0  83996-4 0  9997
2 28051  98.2928 246.4435 0063750 307.8696 177.1041 14.35497064 78777
SHIYAN 1 (SY-1)         
1 28220U 04012A   24189.57588775  .00008140  00000+0  47603-3 0  9992
2 28220  97.9628 218.2026 0007997 328.9901  31.0855 15.12124420103077
AURA                    
1 28376U 04026A   24189.46932294  .00001286  00000+0  28581-3 0  9994
2 28376  98.2515 134.1662 0002081  54.8168 305.3226 14.58682595 62635
IRS-P5 (CARTOSAT-1)     
1 28649U 05017A   24189.46625311  .00002284  00000+0  26009-3 0  9999
2 28649  97.6121 232.0682 0000560 136.8066 223.3195 14.87115547 38178
SINAH 1                 
1 28893U 05043D   24189.85332127  .00000606  00000+0  12801-3 0  9993
2 28893  98.1968 313.5321 0014315 343.2301  16.8426 14.62791209997015
EROS B                  
1 29079U 06014A   24189.91957859  .00015738  00000+0  83861-3 0  9997
2 29079  97.3354 303.5047 0009144 214.4130 145.6511 15.15242294 10688
RESURS-DK 1             
1 29228U 06021A   24189.59192631  .00003060  00000+0  20810-3 0  9994
2 29228  69.9356   9.4113 0005795 310.1677  49.8978 15.07447164995391
ARIRANG-2 (KOMPSAT-2)   
1 29268U 06031A   24190.17619777  .00000475  00000+0  99998-4 0  9991
2 29268  97.8623  37.5075 0015204 156.3971 270.4200 14.63611887957815
LAPAN-TUBSAT            
1 29709U 07001A   24190.17985990  .00000946  00000+0  12002-3 0  9995
2 29709  98.0696 165.6223 0011929 339.3562  20.7168 14.84071849945924
HAIYANG-1B              
1 31113U 07010A   24189.58879445  .00000156  00000+0  75543-4 0  9990
2 31113  98.2947 190.6872 0014439 141.3681 218.8539 14.30625577899156
COSMO-SKYMED 1          
1 31598U 07023A   24190.13165870  .00000733  00000+0  98567-4 0  9996
2 31598  97.8871  12.9680 0001456  87.6096 272.5284 14.82172314924295
TERRASAR-X              
1 31698U 07026A   24189.85631245  .00001838  00000+0  90677-4 0  9992
2 31698  97.4447 196.7136 0001782  84.8177 275.3261 15.19155527946196
WORLDVIEW-1 (WV-1)      
1 32060U 07041A   24189.29747132  .00008757  00000+0  35689-3 0  9992
2 32060  97.3840 308.3373 0006057 200.2529 159.8470 15.24682006934788
YAOGAN-3                
1 32289U 07055A   24190.16279769  .00002870  00000+0  33992-3 0  9999
2 32289  97.8856 215.2678 0001304 108.2047 251.9309 14.85346943900443
COSMO-SKYMED 2          
1 32376U 07059A   24190.16541935  .00000739  00000+0  99353-4 0  9993
2 32376  97.8869  12.9975 0001373  90.0479 270.0892 14.82155650897050
RADARSAT-2              
1 32382U 07061A   24190.16305854  .00000115  00000+0  61457-4 0  9993
2 32382  98.5770 196.2303 0001256  90.3913 269.7413 14.29983052864732
CARTOSAT-2A             
1 32783U 08021A   24190.08434649  .00001270  00000+0  17985-3 0  9990
2 32783  97.8649 248.0520 0010981 249.1422 110.8614 14.78735715874099
GEOEYE 1                
1 33331U 08042A   24190.21565217  .00000854  00000+0  16960-3 0  9993
2 33331  98.1301 262.2881 0008213  98.6709 261.5424 14.64624463846393
THEOS                   
1 33396U 08049A   24190.16004044  .00000126  00000+0  79378-4 0  9996
2 33396  98.6568 255.5839 0001085  98.1331 261.9968 14.20088842817356
COSMO-SKYMED 3          
1 33412U 08054A   24190.06915197  .00004273  00000+0  36774-3 0  9999
2 33412  97.8742  26.9713 0016668 142.4617 217.7772 14.97816024850415
